25924,ABS-6,1999,1436.09,2894.0,+,0.01,Active,1,GSO,Kazakhstan,ABS,Commercial,Communications,Proton,1 25924U 99053A   25262.89814309 -.00000137  00000+0  00000+0 0  9997,2 25924   0.0093 195.9961 0001055 332.8098 312.5463  1.00272560 95135,1.0027256,0.0001055,GEO
43476,GRACE-FO 1,2018,93.79,600.0,+,88.98,Active,1,LEO,USA,USA,Government,Earth Observation,Falcon,1 43476U 18047A   25263.15812060  .00004981  00000+0  14375-3 0  9999,2 43476  88.9786 235.1734 0014957  85.3880 274.9082 15.35357963408321,15.35357963,0.0014957,LEO
47171,STARLINK-1888,2020,95.59,260.0,+,53.06,Active,1,LEO,USA,USA,Commercial,Communications,Falcon,1 47171U 20088BB  25262.61056280  .00001460  00000+0  11692-3 0  9995,2 47171  53.0569 339.6215 0001567  70.1572 289.9586 15.06389074266194,15.06389074,0.0001567,LEO
50486,ONEWEB-0406,2021,109.2,148.0,+,87.92,Active,1,LEO,Kazakhstan,UK,Commercial,Communications,Soyuz,1 50486U 21132T   25263.07811480  .00000049  00000+0  92487-4 0  9995,2 50486  87.9201  29.0944 0002315 103.0797 257.0594 13.18685419186023,13.18685419,0.0002315,LEO
53273,STARLINK-4051,2022,95.44,260.0,+,53.22,Active,1,LEO,USA,USA,Commercial,Communications,Falcon,1 53273U 22086AH  25262.99516763 -.00000421  00000+0 -83396-5 0  9993,2 53273  53.2151 230.4001 0001429  85.6356 274.4800 15.08841649175428,15.08841649,0.0001429,LEO
56299,STARLINK-30108,2023,95.84,750.0,+,43.0,Active,1,LEO,USA,USA,Commercial,Communications,Falcon,1 56299U 23056P   25263.08946978  .00000233  00000+0  32317-4 0  9993,2 56299  43.0041  44.8520 0001581 271.9354  88.1307 15.02538448134560,15.02538448,0.0001581,LEO
58088,STARLINK-30591,2023,95.84,-1.0,+,43.0,Active,0,LEO,USA,USA,Unknown,Unknown,Unknown,1 58088U 23160P   25263.13255394 -.00000592  00000+0 -28734-4 0  9996,2 58088  43.0024 286.8438 0001330 246.2968 113.7735 15.02534201107263,15.02534201,0.000133,LEO
58529,STARLINK-30988,2023,95.84,-1.0,+,43.0,Active,0,LEO,USA,USA,Unknown,Unknown,Unknown,1 58529U 23191X   25262.64006388  .00001999  00000+0  16302-3 0  9999,2 58529  43.0041 315.1913 0001401 266.2253  93.8429 15.02528314 99710,15.02528314,0.0001401,LEO
59934,STARLINK-31971,2024,94.27,-1.0,+,43.0,Active,0,LEO,USA,USA,Unknown,Unknown,Unknown,1 59934U 24106N   25262.93697219  .00000159  00000+0  15308-4 0  9991,2 59934  43.0019 213.6413 0001270 262.6405  97.4302 15.27582138 74327,15.27582138,0.000127,LEO
61717,STARLINK-32457,2024,94.11,-1.0,+,53.16,Active,0,LEO,USA,USA,Unknown,Unknown,Unknown,1 61717U 24196L   25263.12018086 -.00000435  00000+0 -25795-5 0  9994,2 61717  53.1600 173.4733 0001019  85.8072 274.3045 15.30189432 51049,15.30189432,0.0001019,LEO
64539,ELARASAT MMS-1,2025,94.85,-1.0,+,97.45,Active,0,LEO,USA,Australia,Unknown,Unknown,Unknown,1 64539U 25135M   25262.88962167  .00004302  00000+0  21415-3 0  9991,2 64539  97.4538  16.0121 0004547  54.0052 306.1603 15.18118766 13795,15.18118766,0.0004547,LEO
64898,SKYKRAFT-4D,2025,96.48,-1.0,+,97.7,Active,0,LEO,USA,Australia,Unknown,Unknown,Unknown,1 64898U 25154K   25263.13640104  .00005135  00000+0  50582-3 0  9995,2 64898  97.7050 327.9792 0006151  79.8418 280.3495 14.92463838  6964,14.92463838,0.0006151,LEO
64933,STARLINK-34737,2025,95.87,-1.0,+,97.6,Active,0,LEO,USA,USA,Unknown,Unknown,Unknown,1 64933U 25158B   25263.25003472 -.00053122  00000+0 -40720-2 0  9996,2 64933  97.6032 126.1922 0001899  75.9264  40.0613 15.02095920  5953,15.0209592,0.0001899,LEO
