[
  {
    "OBJECT_NAME": "STARLINK-32457",
    "OBJECT_ID": "2024-196L",
    "EPOCH": "2025-09-20T02:53:03.626304",
    "MEAN_MOTION": 15.30189432,
    "ECCENTRICITY": 0.00010197,
    "INCLINATION": 53.16,
    "RA_OF_ASC_NODE": 173.4733,
    "ARG_OF_PERICENTER": 85.8072,
    "MEAN_ANOMALY": 274.3045,
    "EPHEMERIS_TYPE": 0,
    "CLASSIFICATION_TYPE": "U",
    "NORAD_CAT_ID": 61717,
    "ELEMENT_SET_NO": 999,
    "REV_AT_EPOCH": 5104,
    "BSTAR": -2.579491e-06,
    "MEAN_MOTION_DOT": -4.35e-06,
    "MEAN_MOTION_DDOT": 0
  },
  {
    "OBJECT_NAME": "ABS-6",
    "OBJECT_ID": "1999-053A",
    "EPOCH": "2025-09-19T21:33:19.562976",
    "MEAN_MOTION": 1.0027256,
    "ECCENTRICITY": 0.00010554,
    "INCLINATION": 0.0093,
    "RA_OF_ASC_NODE": 195.9961,
    "ARG_OF_PERICENTER": 332.8098,
    "MEAN_ANOMALY": 312.5463,
    "EPHEMERIS_TYPE": 0,
    "CLASSIFICATION_TYPE": "U",
    "NORAD_CAT_ID": 25924,
    "ELEMENT_SET_NO": 999,
    "REV_AT_EPOCH": 9513,
    "BSTAR": 0,
    "MEAN_MOTION_DOT": -1.37e-06,
    "MEAN_MOTION_DDOT": 0
  },
  {
    "OBJECT_NAME": "SKYKRAFT-4D",
    "OBJECT_ID": "2025-154K",
    "EPOCH": "2025-09-20T03:16:25.049856",
    "MEAN_MOTION": 14.92463838,
    "ECCENTRICITY": 0.00061514,
    "INCLINATION": 97.705,
    "RA_OF_ASC_NODE": 327.9792,
    "ARG_OF_PERICENTER": 79.8418,
    "MEAN_ANOMALY": 280.3495,
    "EPHEMERIS_TYPE": 0,
    "CLASSIFICATION_TYPE": "U",
    "NORAD_CAT_ID": 64898,
    "ELEMENT_SET_NO": 999,
    "REV_AT_EPOCH": 696,
    "BSTAR": 0.00050581601,
    "MEAN_MOTION_DOT": 5.135e-05,
    "MEAN_MOTION_DDOT": 0
  },
  {
    "OBJECT_NAME": "ELARASAT MMS-1",
    "OBJECT_ID": "2025-135M",
    "EPOCH": "2025-09-19T21:21:03.312288",
    "MEAN_MOTION": 15.18118766,
    "ECCENTRICITY": 0.00045475,
    "INCLINATION": 97.4538,
    "RA_OF_ASC_NODE": 16.0121,
    "ARG_OF_PERICENTER": 54.0052,
    "MEAN_ANOMALY": 306.1603,
    "EPHEMERIS_TYPE": 0,
    "CLASSIFICATION_TYPE": "U",
    "NORAD_CAT_ID": 64539,
    "ELEMENT_SET_NO": 999,
    "REV_AT_EPOCH": 1379,
    "BSTAR": 0.00021415099,
    "MEAN_MOTION_DOT": 4.302e-05,
    "MEAN_MOTION_DDOT": 0
  },
  {
    "OBJECT_NAME": "STARLINK-30591",
    "OBJECT_ID": "2023-160P",
    "EPOCH": "2025-09-20T03:10:52.660416",
    "MEAN_MOTION": 15.02534201,
    "ECCENTRICITY": 0.00013309,
    "INCLINATION": 43.0024,
    "RA_OF_ASC_NODE": 286.8438,
    "ARG_OF_PERICENTER": 246.2968,
    "MEAN_ANOMALY": 113.7735,
    "EPHEMERIS_TYPE": 0,
    "CLASSIFICATION_TYPE": "U",
    "NORAD_CAT_ID": 58088,
    "ELEMENT_SET_NO": 999,
    "REV_AT_EPOCH": 10726,
    "BSTAR": -2.8733767e-05,
    "MEAN_MOTION_DOT": -5.92e-06,
    "MEAN_MOTION_DDOT": 0
  },
  {
    "OBJECT_NAME": "GRACE-FO 1",
    "OBJECT_ID": "2018-047A",
    "EPOCH": "2025-09-20T03:47:41.619840",
    "MEAN_MOTION": 15.35357963,
    "ECCENTRICITY": 0.00149574,
    "INCLINATION": 88.9786,
    "RA_OF_ASC_NODE": 235.1734,
    "ARG_OF_PERICENTER": 85.388,
    "MEAN_ANOMALY": 274.9082,
    "EPHEMERIS_TYPE": 0,
    "CLASSIFICATION_TYPE": "U",
    "NORAD_CAT_ID": 43476,
    "ELEMENT_SET_NO": 999,
    "REV_AT_EPOCH": 40832,
    "BSTAR": 0.00014375471,
    "MEAN_MOTION_DOT": 4.981e-05,
    "MEAN_MOTION_DDOT": 0
  },
  {
    "OBJECT_NAME": "STARLINK-34737",
    "OBJECT_ID": "2025-158B",
    "EPOCH": "2025-09-20T06:00:02.999808",
    "MEAN_MOTION": 15.0209592,
    "ECCENTRICITY": 0.00018993,
    "INCLINATION": 97.6032,
    "RA_OF_ASC_NODE": 126.1922,
    "ARG_OF_PERICENTER": 75.9264,
    "MEAN_ANOMALY": 40.0613,
    "EPHEMERIS_TYPE": 0,
    "CLASSIFICATION_TYPE": "U",
    "NORAD_CAT_ID": 64933,
    "ELEMENT_SET_NO": 999,
    "REV_AT_EPOCH": 595,
    "BSTAR": -0.0040719687,
    "MEAN_MOTION_DOT": -0.00053122,
    "MEAN_MOTION_DDOT": 0
  },
  {
    "OBJECT_NAME": "ONEWEB-0406",
    "OBJECT_ID": "2021-132T",
    "EPOCH": "2025-09-20T01:52:29.118720",
    "MEAN_MOTION": 13.18685419,
    "ECCENTRICITY": 0.0002315,
    "INCLINATION": 87.9201,
    "RA_OF_ASC_NODE": 29.0944,
    "ARG_OF_PERICENTER": 103.0797,
    "MEAN_ANOMALY": 257.0594,
    "EPHEMERIS_TYPE": 0,
    "CLASSIFICATION_TYPE": "U",
    "NORAD_CAT_ID": 50486,
    "ELEMENT_SET_NO": 999,
    "REV_AT_EPOCH": 18602,
    "BSTAR": 9.2486883e-05,
    "MEAN_MOTION_DOT": 4.9e-07,
    "MEAN_MOTION_DDOT": 0
  },
  {
    "OBJECT_NAME": "STARLINK-31971",
    "OBJECT_ID": "2024-106N",
    "EPOCH": "2025-09-19T22:29:14.397216",
    "MEAN_MOTION": 15.27582138,
    "ECCENTRICITY": 0.00012703,
    "INCLINATION": 43.0019,
    "RA_OF_ASC_NODE": 213.6413,
    "ARG_OF_PERICENTER": 262.6405,
    "MEAN_ANOMALY": 97.4302,
    "EPHEMERIS_TYPE": 0,
    "CLASSIFICATION_TYPE": "U",
    "NORAD_CAT_ID": 59934,
    "ELEMENT_SET_NO": 999,
    "REV_AT_EPOCH": 7432,
    "BSTAR": 1.5308255e-05,
    "MEAN_MOTION_DOT": 1.59e-06,
    "MEAN_MOTION_DDOT": 0
  },
  {
    "OBJECT_NAME": "STARLINK-1888",
    "OBJECT_ID": "2020-088BB",
    "EPOCH": "2025-09-19T14:39:12.625920",
    "MEAN_MOTION": 15.06389074,
    "ECCENTRICITY": 0.00015676,
    "INCLINATION": 53.0569,
    "RA_OF_ASC_NODE": 339.6215,
    "ARG_OF_PERICENTER": 70.1572,
    "MEAN_ANOMALY": 289.9586,
    "EPHEMERIS_TYPE": 0,
    "CLASSIFICATION_TYPE": "U",
    "NORAD_CAT_ID": 47171,
    "ELEMENT_SET_NO": 999,
    "REV_AT_EPOCH": 26619,
    "BSTAR": 0.00011691947,
    "MEAN_MOTION_DOT": 1.46e-05,
    "MEAN_MOTION_DDOT": 0
  },
  {
    "OBJECT_NAME": "STARLINK-30108",
    "OBJECT_ID": "2023-056P",
    "EPOCH": "2025-09-20T02:08:50.188992",
    "MEAN_MOTION": 15.02538448,
    "ECCENTRICITY": 0.00015811,
    "INCLINATION": 43.0041,
    "RA_OF_ASC_NODE": 44.852,
    "ARG_OF_PERICENTER": 271.9354,
    "MEAN_ANOMALY": 88.1307,
    "EPHEMERIS_TYPE": 0,
    "CLASSIFICATION_TYPE": "U",
    "NORAD_CAT_ID": 56299,
    "ELEMENT_SET_NO": 999,
    "REV_AT_EPOCH": 13456,
    "BSTAR": 3.2316893e-05,
    "MEAN_MOTION_DOT": 2.33e-06,
    "MEAN_MOTION_DDOT": 0
  },
  {
    "OBJECT_NAME": "STARLINK-30988",
    "OBJECT_ID": "2023-191X",
    "EPOCH": "2025-09-19T15:21:41.519232",
    "MEAN_MOTION": 15.02528314,
    "ECCENTRICITY": 0.00014015,
    "INCLINATION": 43.0041,
    "RA_OF_ASC_NODE": 315.1913,
    "ARG_OF_PERICENTER": 266.2253,
    "MEAN_ANOMALY": 93.8429,
    "EPHEMERIS_TYPE": 0,
    "CLASSIFICATION_TYPE": "U",
    "NORAD_CAT_ID": 58529,
    "ELEMENT_SET_NO": 999,
    "REV_AT_EPOCH": 9971,
    "BSTAR": 0.000163016,
    "MEAN_MOTION_DOT": 1.999e-05,
    "MEAN_MOTION_DDOT": 0
  },
  {
    "OBJECT_NAME": "STARLINK-4051",
    "OBJECT_ID": "2022-086AH",
    "EPOCH": "2025-09-19T23:53:02.483232",
    "MEAN_MOTION": 15.08841649,
    "ECCENTRICITY": 0.00014293,
    "INCLINATION": 53.2151,
    "RA_OF_ASC_NODE": 230.4001,
    "ARG_OF_PERICENTER": 85.6356,
    "MEAN_ANOMALY": 274.48,
    "EPHEMERIS_TYPE": 0,
    "CLASSIFICATION_TYPE": "U",
    "NORAD_CAT_ID": 53273,
    "ELEMENT_SET_NO": 999,
    "REV_AT_EPOCH": 17542,
    "BSTAR": -8.339614e-06,
    "MEAN_MOTION_DOT": -4.21e-06,
    "MEAN_MOTION_DDOT": 0
  }
]